[{"OBJECT_NAME":"STARLINK-30375","OBJECT_ID":"2023-131A","EPOCH":"2026-03-09T22:52:41.457504","MEAN_MOTION":15.26705495,"ECCENTRICITY":0.00014103,"INCLINATION":43.0015,"RA_OF_ASC_NODE":155.9024,"ARG_OF_PERICENTER":261.0361,"MEAN_ANOMALY":99.0331,"EPHEMERIS_TYPE":0,"CLASSIFICATION_TYPE":"U","NORAD_CAT_ID":57732,"ELEMENT_SET_NO":999,"REV_AT_EPOCH":14014,"BSTAR":4.0278757e-5,"MEAN_MOTION_DOT":8.2e-6,"MEAN_MOTION_DDOT":0},{"OBJECT_NAME":"COSMOS 1953","OBJECT_ID":"1988-050A","EPOCH":"2026-03-09T18:09:26.993952","MEAN_MOTION":15.28528086,"ECCENTRICITY":0.00124769,"INCLINATION":82.5105,"RA_OF_ASC_NODE":158.18,"ARG_OF_PERICENTER":122.2454,"MEAN_ANOMALY":237.9996,"EPHEMERIS_TYPE":0,"CLASSIFICATION_TYPE":"U","NORAD_CAT_ID":19210,"ELEMENT_SET_NO":999,"REV_AT_EPOCH":3779,"BSTAR":0.00029210954,"MEAN_MOTION_DOT":8.158e-5,"MEAN_MOTION_DDOT":0}]
